W
LANDSAT 8               
1 39084U 13008A   21078.35134615  .00000053  00000-0  21766-4 0  9996
2 39084  98.1919 150.1708 0001485  95.6244 264.5124 14.57114287430723
SARAL                   
1 39086U 13009A   21078.18808495 -.00000013  00000-0  11412-4 0  9998
2 39086  98.5452 265.5863 0001657 123.4434 236.6908 14.32046724421325
GAOFEN 1                
1 39150U 13018A   21078.45324279  .00000100  00000-0  21450-4 0  9992
2 39150  97.8391 153.8768 0017974 313.5384  46.4339 14.76573947425597
VNREDSAT 1              
1 39160U 13021B   21078.47144324  .00000100  00000-0  28691-4 0  9994
2 39160  98.1202 157.1805 0001368  74.4842 285.6516 14.62959525420093
ARIRANG-5 (KOMPSAT-5)   
1 39227U 13042A   21078.46151756  .00000013  00000-0  52792-5 0  9990
2 39227  97.6249 264.9470 0001259  90.6099 299.8406 15.04512812415876
YAOGAN 18               
1 39363U 13059A   21078.47462519  .00251610  30017-4  37910-3 0  9991
2 39363  97.1937 148.8191 0009125 222.0643 266.2582 16.04580796411238
SKYSAT-1                
1 39418U 13066C   21078.16019881  .00000760  00000-0  67126-4 0  9992
2 39418  97.5969 157.3300 0020413   0.7177 359.4072 14.99110710400437
DUBAISAT-2              
1 39419U 13066D   21078.42272225  .00000594  00000-0  60266-4 0  9998
2 39419  97.5035 127.0437 0014071  12.4205 347.7377 14.94271240399236
GPM-CORE                
1 39574U 14009C   21078.28585696  .00003500  00000-0  53952-4 0  9995
2 39574  65.0050 296.8425 0011416 285.9103  74.0785 15.56107205400808
SENTINEL-1A             
1 39634U 14016A   21078.48181922 -.00000024  00000-0  45680-5 0  9995
2 39634  98.1821  87.5236 0001328  79.8413 280.2930 14.59199043370675
KAZEOSAT 1              
1 39731U 14024A   21078.43147359  .00000013  00000-0  17474-4 0  9999
2 39731  98.5106 151.4866 0001388  82.5471 277.5881 14.41966857362518
ALOS-2                  
1 39766U 14029A   21078.43870128  .00000100  00000-0  20307-4 0  9995
2 39766  97.9191 177.0969 0001614  92.7988 267.3418 14.79471490368355
KAZEOSAT 2              
1 40010U 14033A   21078.46646729  .00000061  00000-0  14093-4 0  9996
2 40010  97.7790 333.0589 0017031 122.7133 237.5716 14.82101667365054
HODOYOSHI-4             
1 40011U 14033B   21078.47130156  .00000152  00000-0  25986-4 0  9994
2 40011  97.7424 323.8575 0027861 122.6163 237.7737 14.81285388364736
DEIMOS-2                
1 40013U 14033D   21078.46622757  .00000287  00000-0  40017-4 0  9999
2 40013  97.7990 341.3372 0001730 111.5749 248.5630 14.84789093365671
HODOYOSHI-3             
1 40015U 14033F   21077.59954110  .00000039  00000-0  12079-4 0  9997
2 40015  97.7011 307.8594 0037730 145.9609 214.4034 14.78651992363942
SPOT 7                  
1 40053U 14034A   21078.18878918  .00000046  00000-0  19756-4 0  9994
2 40053  98.2256 146.6024 0001194 107.8090 252.3179 14.58545955357723
SKYSAT-2                
1 40072U 14037D   21078.08185630  .00000091  00000-0  19226-4 0  9991
2 40072  98.4593 277.5856 0006020 346.8655  13.2398 14.81384626361906
WORLDVIEW-3 (WV-3)      
1 40115U 14048A   21078.44832012  .00000097  00000-0  17562-4 0  9991
2 40115  97.8495 154.7128 0002165 106.5368 253.6103 14.85204297357610
GAOFEN 2                
1 40118U 14049A   21078.43624018  .00000134  00000-0  24071-4 0  9994
2 40118  97.8111 155.0688 0007824   6.5130 353.6191 14.80665152355764
YAOGAN 21               
1 40143U 14053A   21078.45011628  .00001274  00000-0  56182-4 0  9990
2 40143  97.4038 148.2769 0017312  27.1592 343.4226 15.23502126363274
YAOGAN 22               
1 40275U 14063A   21078.52257057 -.00000027  00000-0  47166-4 0  9991
2 40275 100.5158 196.1846 0006369 191.9440 168.1531 13.15427310307931
ASNARO                  
1 40298U 14070A   21077.21117487 -.00002294  00000-0 -10509-3 0  9990
2 40298  97.3945 160.3068 0002126  92.0088 293.8898 15.19485366352919
HODOYOSHI-1             
1 40299U 14070B   21078.44700409  .00001104  00000-0  47645-4 0  9998
2 40299  97.2931 154.4409 0011630 312.3103 102.7921 15.24543014353707
QSAT-EOS                
1 40301U 14070D   21078.45613604  .00002912  00000-0  10780-3 0  9990
2 40301  97.2617 152.3564 0022989 295.4786 119.8299 15.28223439353918
YAOGAN 23               
1 40305U 14071A   21078.41382911  .00001126  00000-0  57624-4 0  9990
2 40305  97.5548  23.0427 0001040  67.4109  80.9350 15.18704167351455
YAOGAN 24               
1 40310U 14072A   21078.43944018  .00000075  00000-0  18229-4 0  9991
2 40310  97.9234 200.9333 0018290 306.6331  53.3196 14.76298995341102
CBERS 4                 
1 40336U 14079A   21078.44825884  .00000001  00000-0  15525-4 0  9991
2 40336  98.5297 153.5683 0001511  62.3473 297.7874 14.35426659329139
RESURS P2               
1 40360U 14087A   21078.43343844  .00001119  00000-0  36253-4 0  9999
2 40360  97.2291 167.7876 0007704 284.3175 140.7704 15.34068453348462
YAOGAN 26               
1 40362U 14088A   21078.45072634  .00001404  00000-0  61449-4 0  9992
2 40362  97.2108 142.5407 0007869 239.8528 130.8070 15.23611042346742
SMAP                    
1 40376U 15003A   21077.77992882  .00000048  00000-0  18285-4 0  9998
2 40376  98.1262  86.2705 0001098 107.5963 252.5359 14.63363134327341
KOMPSAT-3A              
1 40536U 15014A   21078.41858012  .00000632  00000-0  40199-4 0  9994
2 40536  97.5724  21.0579 0001006 336.1301 136.8649 15.12359445330273
SENTINEL-2A             
1 40697U 15028A   21078.43827195  .00000018  00000-0  23501-4 0  9993
2 40697  98.5676 154.7076 0001166  86.4634 273.6691 14.30819437299783
GAOFEN 8                
1 40701U 15030A   21078.46108060  .00001879  00000-0  81548-4 0  9999
2 40701  97.5000 206.3777 0006810 258.9211 143.2357 15.23579132319118
CARBONITE 1 (CBNT-1)    
1 40718U 15032D   21078.43163978  .00000210  00000-0  38434-4 0  9999
2 40718  97.8018 315.9798 0018027  47.5636 312.7096 14.74927241306341
YAOGAN 27               
1 40878U 15040A   21078.52116575 -.00000021  00000-0  58662-4 0  9992
2 40878 100.1923 123.3141 0007873 314.5179  45.5294 13.15968566267199
GAOFEN 9-01             
1 40894U 15047A   21078.47554620  .00000120  00000-0  24508-4 0  9999
2 40894  97.8624 156.9995 0031847 239.6656 120.1405 14.76311393297051
LAPAN-A2                
1 40931U 15052B   21078.30981688  .00000767  00000-0  17791-4 0  9990
2 40931   5.9986 175.3330 0012585 209.6115 150.3718 14.76667801295954
YAOGAN 28               
1 41026U 15064A   21077.96187721 -.00007259  00000-0 -30247-3 0  9991
2 41026  97.4866 214.6042 0001659 122.1489  21.2946 15.23421819298887
YAOGAN 29               
1 41038U 15069A   21078.45119447  .00000006  00000-0  77811-5 0  9995
2 41038  98.0342  72.3209 0002256  79.2533 280.8934 14.80491695286963
KENT RIDGE 1            
1 41167U 15077B   21078.22247829  .00001100  00000-0  26909-4 0  9995
2 41167  14.9846 284.2196 0010613 202.7568 303.7567 15.09301386290352
TELEOS 1                
1 41169U 15077D   21078.13934972  .00001706  00000-0  60349-4 0  9997
2 41169  14.9802 264.8062 0010398 238.8151 121.1181 15.10929725290528
GAOFEN 4                
1 41194U 15083A   21078.59393154 -.00000335  00000-0  00000+0 0  9994
2 41194   0.0216 171.3609 0003632 347.8241 337.6712  1.00271128 19281
JASON-3                 
1 41240U 16002A   21077.86754231 -.00000044  00000-0  74440-4 0  9995
2 41240  66.0407 155.1723 0007821 273.2539  86.7581 12.80929971241605
SENTINEL-3A             
1 41335U 16011A   21078.40855050 -.00000049  00000-0 -20438-5 0  9997
2 41335  98.6343 147.2085 0001491  98.9681 261.1668 14.26731585264884
SENTINEL-1B             
1 41456U 16025A   21078.44704902 -.00000033  00000-0  26435-5 0  9994
2 41456  98.1817  87.3141 0001337  82.0339 278.1006 14.59198948260830
ZIYUAN 3-2 (ZY 3-2)     
1 41556U 16033A   21078.38450874  .00001200  00000-0  56441-4 0  9998
2 41556  97.3332 153.0187 0003448 121.1114   9.7716 15.21448069266717
NUSAT-1 (FRESCO)        
1 41557U 16033B   21078.43402740  .00002616  00000-0  95285-4 0  9995
2 41557  97.3917 172.9178 0012452 187.1566 303.3729 15.29041874267770
NUSAT-2 (BATATA)        
1 41558U 16033C   21078.35335025  .00002844  00000-0  96997-4 0  9992
2 41558  97.4004 176.2478 0011718 181.3498 262.9437 15.31134967267936
CARTOSAT-2C             
1 41599U 16040A   21078.42279689  .00000835  00000-0  42753-4 0  9995
2 41599  97.4106 139.5285 0013524 338.2166 117.5684 15.19260156262844
SKYSAT-C1               
1 41601U 16040C   21077.73989062  .00001994  00000-0  54472-4 0  9993
2 41601  97.1970 156.8781 0000994 200.8122 159.3083 15.38574548263875
LAPAN-A3                
1 41603U 16040E   21078.40832179  .00000311  00000-0  17488-4 0  9994
2 41603  97.2692 128.6977 0012444 325.3500 155.6076 15.19981833262901
BIROS                   
1 41604U 16040F   21077.70156885  .00000774  00000-0  36386-4 0  9991
2 41604  97.2754 133.1138 0010704 305.2021  54.8213 15.22424951263094
GAOFEN 3                
1 41727U 16049A   21078.48716804 -.00000024  00000-0  57901-5 0  9991
2 41727  98.4124  88.2426 0000804 107.6945 252.4337 14.42215189242512
SKYSAT-C4               
1 41771U 16058B   21077.88915787  .00001736  00000-0  47525-4 0  9994
2 41771  97.1751 148.7128 0002087  82.5100 277.6383 15.38673863250852
SKYSAT-C5               
1 41772U 16058C   21078.22869180  .00000848  00000-0  37434-4 0  9990
2 41772  97.3222 148.2784 0001857  85.1085 275.0365 15.24381222250397
SKYSAT-C2               
1 41773U 16058D   21078.44829693  .00002163  00000-0  58677-4 0  9994
2 41773  97.1761 149.5986 0002200  92.6200 267.5298 15.38688747250968
SKYSAT-C3               
1 41774U 16058E   21077.87700478  .00001729  00000-0  47363-4 0  9997
2 41774  97.1752 148.9924 0002159  92.4237 267.7256 15.38665208250867
ALSAT 1B                
1 41785U 16059C   21078.42064737  .00000016  00000-0  11978-4 0  9994
2 41785  97.9730 131.9855 0031417 163.7558 196.4665 14.63391023239110
PATHFINDER 1            
1 41787U 16059E   21078.39447522  .00000086  00000-0  25223-4 0  9994
2 41787  97.9765 133.3214 0030403 161.9883 198.2408 14.63793093239163
